[{"OBJECT_NAME":"STARLINK-2555","OBJECT_ID":"2021-036R","EPOCH":"2026-03-09T07:42:55.637856","MEAN_MOTION":15.30217775,"ECCENTRICITY":0.0001444,"INCLINATION":53.1596,"RA_OF_ASC_NODE":79.5263,"ARG_OF_PERICENTER":93.9997,"MEAN_ANOMALY":266.1168,"EPHEMERIS_TYPE":0,"CLASSIFICATION_TYPE":"U","NORAD_CAT_ID":48291,"ELEMENT_SET_NO":999,"REV_AT_EPOCH":26831,"BSTAR":0.00027378708,"MEAN_MOTION_DOT":7.762e-5,"MEAN_MOTION_DDOT":0},{"OBJECT_NAME":"STRIX-4","OBJECT_ID":"2024-137A","EPOCH":"2026-03-09T15:41:49.501824","MEAN_MOTION":15.29026224,"ECCENTRICITY":0.00168396,"INCLINATION":43.0134,"RA_OF_ASC_NODE":129.8162,"ARG_OF_PERICENTER":5.2738,"MEAN_ANOMALY":354.8289,"EPHEMERIS_TYPE":0,"CLASSIFICATION_TYPE":"U","NORAD_CAT_ID":60352,"ELEMENT_SET_NO":999,"REV_AT_EPOCH":8876,"BSTAR":0.00071819834,"MEAN_MOTION_DOT":0.0002053,"MEAN_MOTION_DDOT":0}]
